NORAD_CAT_ID,OBJECT_NAME,OBJECT_TYPE,EPOCH,MEAN_MOTION,ECCENTRICITY,INCLINATION,RA_OF_ASC_NODE,ARG_OF_PERICENTER,MEAN_ANOMALY,BSTAR,MEAN_MOTION_DOT,MEAN_MOTION_DDOT,TLE_LINE0,TLE_LINE1,TLE_LINE2,SEMIMAJOR_AXIS,PERIOD,APOGEE,PERIGEE,DECAYED
54165.0,STARLINK-5279,PAYLOAD,2023-06-11 10:49:55,15.08837702,0.0001002,53.2152,193.3185,80.8141,279.2965,4.0415e-05,3.55e-06,0.0,0 STARLINK-5279,1 54165U 22141J   23162.45133913  .00000355  00000-0  40415-4 0  9995,2 54165  53.2152 193.3185 0001002  80.8141 279.2965 15.08837702 34419,6917.887,95.438,540.446,539.059,0.0
54165.0,STARLINK-5279,PAYLOAD,2023-06-11 18:46:51,15.08837438,9.96e-05,53.2153,191.8317,79.046,281.0644,3.1512e-05,2.14e-06,0.0,0 STARLINK-5279,1 54165U 22141J   23162.78254009  .00000214  00000-0  31512-4 0  9993,2 54165  53.2153 191.8317 0000996  79.0460 281.0644 15.08837438 34461,6917.888,95.438,540.442,539.064,0.0
54165.0,STARLINK-5279,PAYLOAD,2023-06-12 10:40:42,15.08837984,0.0001001,53.2157,188.8588,83.7777,276.333,6.2909e-05,7.14e-06,0.0,0 STARLINK-5279,1 54165U 22141J   23163.44494072  .00000714  00000-0  62909-4 0  9992,2 54165  53.2157 188.8588 0001001  83.7777 276.3330 15.08837984 34568,6917.887,95.438,540.444,539.059,0.0
54165.0,STARLINK-5279,PAYLOAD,2023-06-12 18:37:38,15.08836503,0.0001016,53.2157,187.3721,85.4727,274.6382,4.7435e-05,4.67e-06,0.0,0 STARLINK-5279,1 54165U 22141J   23163.77614273  .00000467  00000-0  47435-4 0  9997,2 54165  53.2157 187.3721 0001016  85.4727 274.6382 15.08836503 34611,6917.891,95.438,540.459,539.053,0.0
54165.0,STARLINK-5279,PAYLOAD,2023-06-13 10:31:30,15.08838572,0.0001019,53.2157,184.3985,88.0639,272.047,3.9372e-05,3.39e-06,0.0,0 STARLINK-5279,1 54165U 22141J   23164.43854269  .00000339  00000-0  39372-4 0  9991,2 54165  53.2157 184.3985 0001019  88.0639 272.0470 15.08838572 34713,6917.885,95.438,540.455,539.045,0.0
54165.0,STARLINK-5279,PAYLOAD,2023-06-13 18:28:25,15.08836595,9.85e-05,53.2155,182.911,82.919,277.1914,2.6339e-05,1.31e-06,0.0,0 STARLINK-5279,1 54165U 22141J   23164.76974466  .00000131  00000-0  26339-4 0  9998,2 54165  53.2155 182.9110 0000985  82.9190 277.1914 15.08836595 34768,6917.891,95.438,540.437,539.074,0.0
54165.0,STARLINK-5279,PAYLOAD,2023-06-14 00:49:58,15.08837064,0.000101,53.2153,181.7214,82.6604,277.4503,4.0291e-05,3.53e-06,0.0,0 STARLINK-5279,1 54165U 22141J   23165.03470452  .00000353  00000-0  40291-4 0  9994,2 54165  53.2153 181.7214 0001010  82.6604 277.4503 15.08837064 34809,6917.889,95.438,540.453,539.056,0.0
54165.0,STARLINK-5279,PAYLOAD,2023-06-14 10:22:17,15.08838133,0.0001001,53.2153,179.937,82.401,277.7096,2.5133e-05,1.12e-06,0.0,0 STARLINK-5279,1 54165U 22141J   23165.43214514  .00000112  00000-0  25133-4 0  9994,2 54165  53.2153 179.9370 0001001  82.4010 277.7096 15.08838133 34864,6917.886,95.438,540.444,539.059,0.0
54165.0,STARLINK-5279,PAYLOAD,2023-06-14 18:19:12,15.08838657,0.0001017,53.2156,178.4503,81.801,278.3098,3.8755e-05,3.29e-06,0.0,0 STARLINK-5279,1 54165U 22141J   23165.76334473  .00000329  00000-0  38755-4 0  9991,2 54165  53.2156 178.4503 0001017  81.8010 278.3098 15.08838657 34915,6917.884,95.438,540.453,539.046,0.0
54165.0,STARLINK-5279,PAYLOAD,2023-06-15 07:02:17,15.08840312,0.0001083,53.2161,176.0713,80.519,279.5924,5.2738e-05,5.52e-06,0.0,0 STARLINK-5279,1 54165U 22141J   23166.29326376  .00000552  00000-0  52738-4 0  9998,2 54165  53.2161 176.0713 0001083  80.5190 279.5924 15.08840312 34996,6917.879,95.438,540.494,538.995,0.0
54165.0,STARLINK-5279,PAYLOAD,2023-06-15 18:09:59,15.08840761,0.0001088,53.2162,173.9898,79.898,280.2135,6.1036e-05,6.84e-06,0.0,0 STARLINK-5279,1 54165U 22141J   23166.75694320  .00000684  00000-0  61036-4 0  9993,2 54165  53.2162 173.9898 0001088  79.8980 280.2135 15.08840761 35060,6917.878,95.438,540.496,538.99,0.0
54165.0,STARLINK-5279,PAYLOAD,2023-06-16 06:53:04,15.08844158,0.000102,53.2157,171.6107,79.5856,280.5251,9.4869e-05,1.223e-05,0.0,0 STARLINK-5279,1 54165U 22141J   23167.28685926  .00001223  00000-0  94869-4 0  9994,2 54165  53.2157 171.6107 0001020  79.5856 280.5251 15.08844158 35142,6917.868,95.437,540.438,539.027,0.0
54165.0,STARLINK-5279,PAYLOAD,2023-06-17 00:22:19,15.08837552,0.0001015,53.2149,168.3398,78.3409,281.7697,7.3569e-06,-1.71e-06,0.0,0 STARLINK-5279,1 54165U 22141J   23168.01550540 -.00000171  00000-0  73569-5 0  9996,2 54165  53.2149 168.3398 0001015  78.3409 281.7697 15.08837552 35252,6917.888,95.438,540.455,539.051,0.0
54165.0,STARLINK-5279,PAYLOAD,2023-06-17 06:43:52,15.08836387,0.0001048,53.2152,167.1496,82.5478,277.5633,-8.4062e-06,-4.22e-06,0.0,0 STARLINK-5279,1 54165U 22141J   23168.28046684 -.00000422  00000-0 -84062-5 0  9994,2 54165  53.2152 167.1496 0001048  82.5478 277.5633 15.08836387 35293,6917.891,95.438,540.481,539.031,0.0
54165.0,STARLINK-5279,PAYLOAD,2023-06-18 06:34:39,15.08840805,0.0001079,53.2149,162.6891,81.6486,278.4629,3.2973e-07,-2.83e-06,0.0,0 STARLINK-5279,1 54165U 22141J   23169.27406432 -.00000283  00000-0  32973-6 0  9994,2 54165  53.2149 162.6891 0001079  81.6486 278.4629 15.08840805 35443,6917.878,95.438,540.489,538.996,0.0
54165.0,STARLINK-5279,PAYLOAD,2023-06-18 16:06:58,15.08838365,0.0001048,53.2152,160.9054,79.6022,280.5088,1.6627e-05,-2.3e-07,0.0,0 STARLINK-5279,1 54165U 22141J   23169.67150568 -.00000023  00000-0  16627-4 0  9992,2 54165  53.2152 160.9054 0001048  79.6022 280.5088 15.08838365 35506,6917.885,95.438,540.475,539.025,0.0
54165.0,STARLINK-5279,PAYLOAD,2023-06-19 08:00:49,15.08837982,0.000106,53.2157,157.9326,82.4586,277.6526,8.3194e-05,1.036e-05,0.0,0 STARLINK-5279,1 54165U 22141J   23170.33390529  .00001036  00000-0  83194-4 0  9997,2 54165  53.2157 157.9326 0001060  82.4586 277.6526 15.08837982 35609,6917.887,95.438,540.485,539.018,0.0
54165.0,STARLINK-5279,PAYLOAD,2023-06-19 15:57:45,15.08835549,0.0001063,53.2156,156.4459,82.4807,277.6306,4.0877e-05,3.63e-06,0.0,0 STARLINK-5279,1 54165U 22141J   23170.66510885  .00000363  00000-0  40877-4 0  9995,2 54165  53.2156 156.4459 0001063  82.4807 277.6306 15.08835549 35656,6917.894,95.438,540.494,539.024,0.0
54165.0,STARLINK-5279,PAYLOAD,2023-06-20 07:51:36,15.0883842,0.0001066,53.2156,153.4722,82.8959,277.2155,2.8642e-05,1.68e-06,0.0,0 STARLINK-5279,1 54165U 22141J   23171.32750858  .00000168  00000-0  28642-4 0  9994,2 54165  53.2156 153.4722 0001066  82.8959 277.2155 15.08838420 35751,6917.885,95.438,540.488,539.013,0.0
54165.0,STARLINK-5279,PAYLOAD,2023-06-21 02:56:14,15.08839213,0.0001066,53.2158,149.9035,85.7168,274.3946,4.2995e-05,3.97e-06,0.0,0 STARLINK-5279,1 54165U 22141J   23172.12238852  .00000397  00000-0  42995-4 0  9999,2 54165  53.2158 149.9035 0001066  85.7168 274.3946 15.08839213 35874,6917.883,95.438,540.485,539.01,0.0
54165.0,STARLINK-5279,PAYLOAD,2023-06-21 06:07:00,15.08842102,0.0001096,53.2157,149.3087,85.6472,274.4645,4.8417e-05,4.83e-06,0.0,0 STARLINK-5279,1 54165U 22141J   23172.25486673  .00000483  00000-0  48417-4 0  9990,2 54165  53.2157 149.3087 0001096  85.6472 274.4645 15.08842102 35894,6917.874,95.437,540.497,538.981,0.0
54165.0,STARLINK-5279,PAYLOAD,2023-06-21 15:39:19,15.08836615,0.0001135,53.216,147.5243,80.9653,279.1468,1.5971e-05,-3.4e-07,0.0,0 STARLINK-5279,1 54165U 22141J   23172.65231161 -.00000034  00000-0  15971-4 0  9996,2 54165  53.2160 147.5243 0001135  80.9653 279.1468 15.08836615 35959,6917.891,95.438,540.541,538.971,0.0
54165.0,STARLINK-5279,PAYLOAD,2023-06-21 22:00:52,15.08834493,0.000124,53.2158,146.3346,82.3093,277.804,8.2212e-06,-1.57e-06,0.0,0 STARLINK-5279,1 54165U 22141J   23172.91727424 -.00000157  00000-0  82212-5 0  9996,2 54165  53.2158 146.3346 0001240  82.3093 277.8040 15.08834493 35995,6917.897,95.438,540.62,538.904,0.0
54165.0,STARLINK-5279,PAYLOAD,2023-06-22 15:30:06,15.08840581,0.0001198,53.2159,143.0638,82.9438,277.1691,7.0328e-05,8.32e-06,0.0,0 STARLINK-5279,1 54165U 22141J   23173.64590994  .00000832  00000-0  70328-4 0  9990,2 54165  53.2159 143.0638 0001198  82.9438 277.1691 15.08840581 36109,6917.879,95.438,540.572,538.915,0.0
54165.0,STARLINK-5279,PAYLOAD,2023-06-23 07:23:57,15.08851019,0.0001192,53.2158,140.0897,85.0138,275.099,0.00011994,1.622e-05,0.0,0 STARLINK-5279,1 54165U 22141J   23174.30830032  .00001622  00000-0  11994-3 0  9995,2 54165  53.2158 140.0897 0001192  85.0138 275.0990 15.08851019 36205,6917.847,95.437,540.536,538.887,0.0
54165.0,STARLINK-5279,PAYLOAD,2023-06-23 15:20:53,15.088451,0.0001131,53.2158,138.603,88.1869,271.9253,5.5643e-05,5.98e-06,0.0,0 STARLINK-5279,1 54165U 22141J   23174.63950487  .00000598  00000-0  55643-4 0  9999,2 54165  53.2158 138.6030 0001131  88.1869 271.9253 15.08845100 36251,6917.865,95.437,540.512,538.947,0.0
54165.0,STARLINK-5279,PAYLOAD,2023-06-24 04:03:58,15.08837929,0.0001277,53.2168,136.2246,94.4483,265.6655,4.0743e-05,3.61e-06,0.0,0 STARLINK-5279,1 54165U 22141J   23175.16943205  .00000361  00000-0  40743-4 0  9991,2 54165  53.2168 136.2246 0001277  94.4483 265.6655 15.08837929 36333,6917.887,95.438,540.635,538.868,0.0
54165.0,STARLINK-5279,PAYLOAD,2023-06-25 07:05:32,15.08844631,0.0001167,53.2168,131.1691,92.9207,267.1919,-9.6799e-06,-4.42e-06,0.0,0 STARLINK-5279,1 54165U 22141J   23176.29550994 -.00000442  00000-0 -96799-5 0  9990,2 54165  53.2168 131.1691 0001167  92.9207 267.1919 15.08844631 36503,6917.866,95.437,540.539,538.924,0.0
54165.0,STARLINK-5279,PAYLOAD,2023-06-26 13:17:51,15.08840444,0.0001125,53.2157,125.5229,98.8297,261.2822,-4.1536e-06,-3.54e-06,0.0,0 STARLINK-5279,1 54165U 22141J   23177.55407316 -.00000354  00000-0 -41536-5 0  9990,2 54165  53.2157 125.5229 0001125  98.8297 261.2822 15.08840444 36699,6917.879,95.438,540.522,538.966,0.0
54165.0,STARLINK-5279,PAYLOAD,2023-06-27 03:36:20,15.08832026,0.0001087,53.2163,122.8445,103.3584,256.7529,-3.1626e-05,-7.91e-06,0.0,0 STARLINK-5279,1 54165U 22141J   23178.15024281 -.00000791  00000-0 -31626-4 0  9996,2 54165  53.2163 122.8445 0001087 103.3584 256.7529 15.08832026 36784,6917.905,95.438,540.522,539.018,0.0
